{
    "links": {
        "self": "http://www.neowsapp.com/rest/v1/neo/3759660?api_key=iIulBulltgU6a56xZRHN4H3l9WmuAYTsLGpBGhQ2"
    },
    "id": "3759660",
    "neo_reference_id": "3759660",
    "name": "(2016 RA41)",
    "designation": "2016 RA41",
    "nasa_jpl_url": "http://ssd.jpl.nasa.gov/sbdb.cgi?sstr=3759660",
    "absolute_magnitude_h": 21.8,
    "estimated_diameter": {
        "kilometers": {
            "estimated_diameter_min": 0.1160259082,
            "estimated_diameter_max": 0.2594418179
        },
        "meters": {
            "estimated_diameter_min": 116.0259082094,
            "estimated_diameter_max": 259.4418179074
        },
        "miles": {
            "estimated_diameter_min": 0.0720951346,
            "estimated_diameter_max": 0.1612096218
        },
        "feet": {
            "estimated_diameter_min": 380.6624406898,
            "estimated_diameter_max": 851.1870938635
        }
    },
    "is_potentially_hazardous_asteroid": false,
    "close_approach_data": [
        {
            "close_approach_date": "1991-09-28",
            "close_approach_date_full": "1991-Sep-28 00:33",
            "epoch_date_close_approach": 686017980000,
            "relative_velocity": {
                "kilometers_per_second": "5.964011463",
                "kilometers_per_hour": "21470.4412667474",
                "miles_per_hour": "13340.897241552"
            },
            "miss_distance": {
                "astronomical": "0.41515705",
                "lunar": "161.49609245",
                "kilometers": "62106610.3954835",
                "miles": "38591258.1993323"
            },
            "orbiting_body": "Earth"
        },
        {
            "close_approach_date": "2016-10-02",
            "close_approach_date_full": "2016-Oct-02 03:51",
            "epoch_date_close_approach": 1475380260000,
            "relative_velocity": {
                "kilometers_per_second": "3.8246587005",
                "kilometers_per_hour": "13768.771321941",
                "miles_per_hour": "8555.379047236"
            },
            "miss_distance": {
                "astronomical": "0.2546851285",
                "lunar": "99.0725149865",
                "kilometers": "38100352.744276295",
                "miles": "23674461.395931071"
            },
            "orbiting_body": "Earth"
        },
        {
            "close_approach_date": "2041-10-03",
            "close_approach_date_full": "2041-Oct-03 03:14",
            "epoch_date_close_approach": 2264382840000,
            "relative_velocity": {
                "kilometers_per_second": "3.959184951",
                "kilometers_per_hour": "14253.0658236377",
                "miles_per_hour": "8856.3008169153"
            },
            "miss_distance": {
                "astronomical": "0.2399434375",
                "lunar": "93.3379971875",
                "kilometers": "35895027.170478125",
                "miles": "22304135.627223125"
            },
            "orbiting_body": "Earth"
        }
    ],
    "orbital_data": {
        "orbit_id": "9",
        "orbit_determination_date": "2017-04-06 08:23:48",
        "first_observation_date": "2016-08-03",
        "last_observation_date": "2016-11-08",
        "data_arc_in_days": 97,
        "observations_used": 70,
        "orbit_uncertainty": "5",
        "minimum_orbit_intersection": ".24184",
        "jupiter_tisserand_invariant": "3.211",
        "epoch_osculation": "2459000.5",
        "eccentricity": ".5213103593500961",
        "semi_major_axis": "2.591307927492593",
        "inclination": "3.246549834123455",
        "ascending_node_longitude": "176.1051834267692",
        "orbital_period": "1523.621043758659",
        "perihelion_distance": "1.240432260624676",
        "perihelion_argument": "197.7867148142919",
        "aphelion_distance": "3.942183594360509",
        "perihelion_time": "2459195.035324448715",
        "mean_anomaly": "314.0353442291846",
        "mean_motion": ".236279225385275",
        "equinox": "J2000",
        "orbit_class": {
            "orbit_class_type": "AMO",
            "orbit_class_description": "Near-Earth asteroid orbits similar to that of 1221 Amor",
            "orbit_class_range": "1.017 AU < q (perihelion) < 1.3 AU"
        }
    },
    "is_sentry_object": false
}